ALOS (DAICHI)           
1 28931U 06002A   26064.89484651  .00002246  00000+0  38460-3 0  9991
2 28931  98.1215  20.8693 0001064  54.0703 306.0601 14.69796405 72926
H-2A R/B                
1 28932U 06002B   26064.97982284  .00010336  00000+0  51903-3 0  9992
2 28932  98.2404 211.6848 0051912 253.7613 105.7903 15.16321114 93875
RESURS-DK 1             
1 29228U 06021A   26064.89861462  .00003287  00000+0  19332-3 0  9994
2 29228  69.9310 246.8301 0002315 165.4830 194.6403 15.12710750 86959
CZ-4B R/B               
1 29507U 06046C   26064.78314909  .00006554  00000+0  33233-3 0  9994
2 29507  97.5598 109.7022 0031647 281.4804  78.2875 15.16857792 59458
CZ-2C R/B               
1 31114U 07010B   26064.92158111  .00000158  00000+0  91796-4 0  9993
2 31114  98.3978 178.3893 0057983 305.7809  53.7986 14.20244498979189
COSMO-SKYMED 1          
1 31598U 07023A   26064.98700008  .00003876  00000+0  34641-3 0  9992
2 31598  97.8862 255.9896 0000893  98.2893 261.8429 14.96498096 14352
COSMOS 2428             
1 31792U 07029A   26064.85337836  .00000062  00000+0  58887-4 0  9998
2 31792  70.9426 211.3950 0008911 281.0546  78.9572 14.12945097963556
SL-16 R/B               
1 31793U 07029B   26064.75543353 -.00000095  00000+0 -24594-4 0  9997
2 31793  70.9757 180.6541 0002372 277.2484 192.7201 14.14833448964813
KORONAS-FOTON           
1 33504U 09003A   26064.61455480  .00014419  00000+0  32328-3 0  9997
2 33504  82.4277 280.1155 0010935 163.4011 196.7596 15.43212499945116
CZ-2C R/B               
1 37731U 11030B   26064.89744049  .00002334  00000+0  29969-3 0  9998
2 37731  97.8542  22.2365 0052801   4.4539  61.7844 14.81204198789539
H-2A R/B                
1 38341U 12025E   26064.91396147  .00005065  00000+0  45928-3 0  9993
2 38341  98.4726  31.6575 0043584 326.9915  32.8584 14.95127032747656
SHIJIAN-16 (SJ-16)      
1 39358U 13057A   26064.94187106  .00000486  00000+0  50299-4 0  9994
2 39358  74.9735 192.1817 0015701 122.1313 238.1401 14.92320441670946
