CCSDS_OMM_VERS = 2.0
CREATION_DATE  = 
ORIGINATOR     = 

OBJECT_NAME    = ALOS (DAICHI)
OBJECT_ID      = 2006-002A
CENTER_NAME    = EARTH
REF_FRAME      = TEME
TIME_SYSTEM    = UTC
MEAN_ELEMENT_THEORY = SGP/SGP4

EPOCH          = 2026-03-05T21:28:34.738464
MEAN_MOTION    = 14.69796405
ECCENTRICITY   = .00010646
INCLINATION    = 98.1215
RA_OF_ASC_NODE = 20.8693
ARG_OF_PERICENTER = 54.0703
MEAN_ANOMALY   = 306.0601

EPHEMERIS_TYPE = 0
CLASSIFICATION_TYPE = U
NORAD_CAT_ID   = 28931
ELEMENT_SET_NO = 999
REV_AT_EPOCH   = 7292
BSTAR          = .38459811E-3
MEAN_MOTION_DOT = .2246E-4
MEAN_MOTION_DDOT = 0

CCSDS_OMM_VERS = 2.0
CREATION_DATE  = 
ORIGINATOR     = 

OBJECT_NAME    = H-2A R/B
OBJECT_ID      = 2006-002B
CENTER_NAME    = EARTH
REF_FRAME      = TEME
TIME_SYSTEM    = UTC
MEAN_ELEMENT_THEORY = SGP/SGP4

EPOCH          = 2026-03-05T23:30:56.693376
MEAN_MOTION    = 15.16321114
ECCENTRICITY   = .00519125
INCLINATION    = 98.2404
RA_OF_ASC_NODE = 211.6848
ARG_OF_PERICENTER = 253.7613
MEAN_ANOMALY   = 105.7903

EPHEMERIS_TYPE = 0
CLASSIFICATION_TYPE = U
NORAD_CAT_ID   = 28932
ELEMENT_SET_NO = 999
REV_AT_EPOCH   = 9387
BSTAR          = .51902603E-3
MEAN_MOTION_DOT = .10336E-3
MEAN_MOTION_DDOT = 0

CCSDS_OMM_VERS = 2.0
CREATION_DATE  = 
ORIGINATOR     = 

OBJECT_NAME    = RESURS-DK 1
OBJECT_ID      = 2006-021A
CENTER_NAME    = EARTH
REF_FRAME      = TEME
TIME_SYSTEM    = UTC
MEAN_ELEMENT_THEORY = SGP/SGP4

EPOCH          = 2026-03-05T21:34:00.303168
MEAN_MOTION    = 15.12710750
ECCENTRICITY   = .00023155
INCLINATION    = 69.9310
RA_OF_ASC_NODE = 246.8301
ARG_OF_PERICENTER = 165.4830
MEAN_ANOMALY   = 194.6403

EPHEMERIS_TYPE = 0
CLASSIFICATION_TYPE = U
NORAD_CAT_ID   = 29228
ELEMENT_SET_NO = 999
REV_AT_EPOCH   = 8695
BSTAR          = .19331875E-3
MEAN_MOTION_DOT = .3287E-4
MEAN_MOTION_DDOT = 0

CCSDS_OMM_VERS = 2.0
CREATION_DATE  = 
ORIGINATOR     = 

OBJECT_NAME    = CZ-4B R/B
OBJECT_ID      = 2006-046C
CENTER_NAME    = EARTH
REF_FRAME      = TEME
TIME_SYSTEM    = UTC
MEAN_ELEMENT_THEORY = SGP/SGP4

EPOCH          = 2026-03-05T18:47:44.081376
MEAN_MOTION    = 15.16857792
ECCENTRICITY   = .00316476
INCLINATION    = 97.5598
RA_OF_ASC_NODE = 109.7022
ARG_OF_PERICENTER = 281.4804
MEAN_ANOMALY   = 78.2875

EPHEMERIS_TYPE = 0
CLASSIFICATION_TYPE = U
NORAD_CAT_ID   = 29507
ELEMENT_SET_NO = 999
REV_AT_EPOCH   = 5945
BSTAR          = .33233037E-3
MEAN_MOTION_DOT = .6554E-4
MEAN_MOTION_DDOT = 0

CCSDS_OMM_VERS = 2.0
CREATION_DATE  = 
ORIGINATOR     = 

OBJECT_NAME    = CZ-2C R/B
OBJECT_ID      = 2007-010B
CENTER_NAME    = EARTH
REF_FRAME      = TEME
TIME_SYSTEM    = UTC
MEAN_ELEMENT_THEORY = SGP/SGP4

EPOCH          = 2026-03-05T22:07:04.607904
MEAN_MOTION    = 14.20244498
ECCENTRICITY   = .00579831
INCLINATION    = 98.3978
RA_OF_ASC_NODE = 178.3893
ARG_OF_PERICENTER = 305.7809
MEAN_ANOMALY   = 53.7986

EPHEMERIS_TYPE = 0
CLASSIFICATION_TYPE = U
NORAD_CAT_ID   = 31114
ELEMENT_SET_NO = 999
REV_AT_EPOCH   = 97918
BSTAR          = .91795736E-4
MEAN_MOTION_DOT = .158E-5
MEAN_MOTION_DDOT = 0

CCSDS_OMM_VERS = 2.0
CREATION_DATE  = 
ORIGINATOR     = 

OBJECT_NAME    = COSMO-SKYMED 1
OBJECT_ID      = 2007-023A
CENTER_NAME    = EARTH
REF_FRAME      = TEME
TIME_SYSTEM    = UTC
MEAN_ELEMENT_THEORY = SGP/SGP4

EPOCH          = 2026-03-05T23:41:16.806912
MEAN_MOTION    = 14.96498096
ECCENTRICITY   = .00008932
INCLINATION    = 97.8862
RA_OF_ASC_NODE = 255.9896
ARG_OF_PERICENTER = 98.2893
MEAN_ANOMALY   = 261.8429

EPHEMERIS_TYPE = 0
CLASSIFICATION_TYPE = U
NORAD_CAT_ID   = 31598
ELEMENT_SET_NO = 999
REV_AT_EPOCH   = 1435
BSTAR          = .3464053E-3
MEAN_MOTION_DOT = .3876E-4
MEAN_MOTION_DDOT = 0

CCSDS_OMM_VERS = 2.0
CREATION_DATE  = 
ORIGINATOR     = 

OBJECT_NAME    = COSMOS 2428
OBJECT_ID      = 2007-029A
CENTER_NAME    = EARTH
REF_FRAME      = TEME
TIME_SYSTEM    = UTC
MEAN_ELEMENT_THEORY = SGP/SGP4

EPOCH          = 2026-03-05T20:28:51.890304
MEAN_MOTION    = 14.12945097
ECCENTRICITY   = .00089117
INCLINATION    = 70.9426
RA_OF_ASC_NODE = 211.3950
ARG_OF_PERICENTER = 281.0546
MEAN_ANOMALY   = 78.9572

EPHEMERIS_TYPE = 0
CLASSIFICATION_TYPE = U
NORAD_CAT_ID   = 31792
ELEMENT_SET_NO = 999
REV_AT_EPOCH   = 96355
BSTAR          = .58886686E-4
MEAN_MOTION_DOT = .62E-6
MEAN_MOTION_DDOT = 0

CCSDS_OMM_VERS = 2.0
CREATION_DATE  = 
ORIGINATOR     = 

OBJECT_NAME    = SL-16 R/B
OBJECT_ID      = 2007-029B
CENTER_NAME    = EARTH
REF_FRAME      = TEME
TIME_SYSTEM    = UTC
MEAN_ELEMENT_THEORY = SGP/SGP4

EPOCH          = 2026-03-05T18:07:49.456992
MEAN_MOTION    = 14.14833448
ECCENTRICITY   = .00023724
INCLINATION    = 70.9757
RA_OF_ASC_NODE = 180.6541
ARG_OF_PERICENTER = 277.2484
MEAN_ANOMALY   = 192.7201

EPHEMERIS_TYPE = 0
CLASSIFICATION_TYPE = U
NORAD_CAT_ID   = 31793
ELEMENT_SET_NO = 999
REV_AT_EPOCH   = 96481
BSTAR          = -.2459446E-4
MEAN_MOTION_DOT = -.95E-6
MEAN_MOTION_DDOT = 0

CCSDS_OMM_VERS = 2.0
CREATION_DATE  = 
ORIGINATOR     = 

OBJECT_NAME    = KORONAS-FOTON
OBJECT_ID      = 2009-003A
CENTER_NAME    = EARTH
REF_FRAME      = TEME
TIME_SYSTEM    = UTC
MEAN_ELEMENT_THEORY = SGP/SGP4

EPOCH          = 2026-03-05T14:44:57.534720
MEAN_MOTION    = 15.43212499
ECCENTRICITY   = .0010935
INCLINATION    = 82.4277
RA_OF_ASC_NODE = 280.1155
ARG_OF_PERICENTER = 163.4011
MEAN_ANOMALY   = 196.7596

EPHEMERIS_TYPE = 0
CLASSIFICATION_TYPE = U
NORAD_CAT_ID   = 33504
ELEMENT_SET_NO = 999
REV_AT_EPOCH   = 94511
BSTAR          = .32328E-3
MEAN_MOTION_DOT = .14419E-3
MEAN_MOTION_DDOT = 0

CCSDS_OMM_VERS = 2.0
CREATION_DATE  = 
ORIGINATOR     = 

OBJECT_NAME    = CZ-2C R/B
OBJECT_ID      = 2011-030B
CENTER_NAME    = EARTH
REF_FRAME      = TEME
TIME_SYSTEM    = UTC
MEAN_ELEMENT_THEORY = SGP/SGP4

EPOCH          = 2026-03-05T21:32:18.858336
MEAN_MOTION    = 14.81204198
ECCENTRICITY   = .00528016
INCLINATION    = 97.8542
RA_OF_ASC_NODE = 22.2365
ARG_OF_PERICENTER = 4.4539
MEAN_ANOMALY   = 61.7844

EPHEMERIS_TYPE = 0
CLASSIFICATION_TYPE = U
NORAD_CAT_ID   = 37731
ELEMENT_SET_NO = 999
REV_AT_EPOCH   = 78953
BSTAR          = .29969177E-3
MEAN_MOTION_DOT = .2334E-4
MEAN_MOTION_DDOT = 0

CCSDS_OMM_VERS = 2.0
CREATION_DATE  = 
ORIGINATOR     = 

OBJECT_NAME    = H-2A R/B
OBJECT_ID      = 2012-025E
CENTER_NAME    = EARTH
REF_FRAME      = TEME
TIME_SYSTEM    = UTC
MEAN_ELEMENT_THEORY = SGP/SGP4

EPOCH          = 2026-03-05T21:56:06.271008
MEAN_MOTION    = 14.95127032
ECCENTRICITY   = .00435846
INCLINATION    = 98.4726
RA_OF_ASC_NODE = 31.6575
ARG_OF_PERICENTER = 326.9915
MEAN_ANOMALY   = 32.8584

EPHEMERIS_TYPE = 0
CLASSIFICATION_TYPE = U
NORAD_CAT_ID   = 38341
ELEMENT_SET_NO = 999
REV_AT_EPOCH   = 74765
BSTAR          = .4592753E-3
MEAN_MOTION_DOT = .5065E-4
MEAN_MOTION_DDOT = 0

CCSDS_OMM_VERS = 2.0
CREATION_DATE  = 
ORIGINATOR     = 

OBJECT_NAME    = SHIJIAN-16 (SJ-16)
OBJECT_ID      = 2013-057A
CENTER_NAME    = EARTH
REF_FRAME      = TEME
TIME_SYSTEM    = UTC
MEAN_ELEMENT_THEORY = SGP/SGP4

EPOCH          = 2026-03-05T22:36:17.659584
MEAN_MOTION    = 14.92320441
ECCENTRICITY   = .00157011
INCLINATION    = 74.9735
RA_OF_ASC_NODE = 192.1817
ARG_OF_PERICENTER = 122.1313
MEAN_ANOMALY   = 238.1401

EPHEMERIS_TYPE = 0
CLASSIFICATION_TYPE = U
NORAD_CAT_ID   = 39358
ELEMENT_SET_NO = 999
REV_AT_EPOCH   = 67094
BSTAR          = .50298572E-4
MEAN_MOTION_DOT = .486E-5
MEAN_MOTION_DDOT = 0

